start=new Date('2022-02-18T00:00:00.000Z').valueOf();
sats=[{"CENTER_NAME":"EARTH","COUNTRY_CODE":"US","REF_FRAME":"TEME","ECCENTRICITY":"0.00015360","TIME_SYSTEM":"UTC","ELEMENT_SET_NO":"999","FILE":"3305402","RA_OF_ASC_NODE":"140.2528","MEAN_MOTION_DDOT":"0.0000000000000","TLE_LINE2":"2 48036  53.0538 140.2528 0001536  65.6712 294.4437 15.06401396 51409","REV_AT_EPOCH":"5140","DECAY_DATE":null,"OBJECT_TYPE":"PAYLOAD","MEAN_MOTION_DOT":"0.00005631","ARG_OF_PERICENTER":"65.6712","OBJECT_ID":"2021-024BM","BSTAR":"0.00039659000000","LAUNCH_DATE":"2021-03-24","TLE_LINE1":"1 48036U 21024BM  22048.65353227  .00005631  00000-0  39659-3 0  9999","MEAN_MOTION":"15.06401396","GP_ID":"196243169","APOAPSIS":"548.273","INCLINATION":"53.0538","NORAD_CAT_ID":"48036","CLASSIFICATION_TYPE":"U","MEAN_ANOMALY":"294.4437","OBJECT_NAME":"STARLINK-2295","EPOCH":"2022-02-17T15:41:05.188128","PERIAPSIS":"546.146","MEAN_ELEMENT_THEORY":"SGP4","SEMIMAJOR_AXIS":"6925.344","PERIOD":"95.592","EPHEMERIS_TYPE":"0","RCS_SIZE":"LARGE","SITE":"AFETR"},{"ARG_OF_PERICENTER":"86.5051","OBJECT_ID":"2021-027A","BSTAR":"0.00006755500000","MEAN_MOTION_DOT":"0.00000725","GP_ID":"196244677","APOAPSIS":"548.306","INCLINATION":"53.0559","MEAN_MOTION":"15.06393020","TLE_LINE1":"1 48092U 21027A   22048.89725557  .00000725  00000-0  67555-4 0  9995","LAUNCH_DATE":"2021-04-07","OBJECT_NAME":"STARLINK-2048","EPOCH":"2022-02-17T21:32:02.881248","PERIAPSIS":"546.164","NORAD_CAT_ID":"48092","MEAN_ANOMALY":"273.6115","CLASSIFICATION_TYPE":"U","RCS_SIZE":"LARGE","EPHEMERIS_TYPE":"0","PERIOD":"95.593","SITE":"AFETR","MEAN_ELEMENT_THEORY":"SGP4","SEMIMAJOR_AXIS":"6925.370","ECCENTRICITY":"0.00015460","REF_FRAME":"TEME","COUNTRY_CODE":"US","CENTER_NAME":"EARTH","ELEMENT_SET_NO":"999","FILE":"3305402","TIME_SYSTEM":"UTC","RA_OF_ASC_NODE":"264.1508","MEAN_MOTION_DDOT":"0.0000000000000","OBJECT_TYPE":"PAYLOAD","TLE_LINE2":"2 48092  53.0559 264.1508 0001546  86.5051 273.6115 15.06393020 50277","DECAY_DATE":null,"REV_AT_EPOCH":"5027"},{"MEAN_MOTION_DDOT":"0.0000000000000","RA_OF_ASC_NODE":"329.0009","OBJECT_TYPE":"PAYLOAD","DECAY_DATE":null,"TLE_LINE2":"2 48093  53.0553 329.0009 0001535  74.6448 285.4710 15.06396232 49374","REV_AT_EPOCH":"4937","REF_FRAME":"TEME","ECCENTRICITY":"0.00015350","CENTER_NAME":"EARTH","COUNTRY_CODE":"US","ELEMENT_SET_NO":"999","FILE":"3305402","TIME_SYSTEM":"UTC","PERIAPSIS":"546.162","EPOCH":"2022-02-17T22:24:26.518464","OBJECT_NAME":"STARLINK-2404","CLASSIFICATION_TYPE":"U","MEAN_ANOMALY":"285.4710","NORAD_CAT_ID":"48093","SITE":"AFETR","PERIOD":"95.592","EPHEMERIS_TYPE":"0","RCS_SIZE":"LARGE","MEAN_ELEMENT_THEORY":"SGP4","SEMIMAJOR_AXIS":"6925.360","BSTAR":"0.00015510000000","ARG_OF_PERICENTER":"74.6448","OBJECT_ID":"2021-027B","MEAN_MOTION_DOT":"0.00002029","APOAPSIS":"548.288","INCLINATION":"53.0553","GP_ID":"196242925","LAUNCH_DATE":"2021-04-07","TLE_LINE1":"1 48093U 21027B   22048.93364026  .00002029  00000-0  15510-3 0  9993","MEAN_MOTION":"15.06396232"},{"TIME_SYSTEM":"UTC","FILE":"3304735","ELEMENT_SET_NO":"999","CENTER_NAME":"EARTH","COUNTRY_CODE":"US","REF_FRAME":"TEME","ECCENTRICITY":"0.00015470","REV_AT_EPOCH":"4917","TLE_LINE2":"2 48094  53.0565 340.9155 0001547  69.5604 290.5551 15.06395550 49172","DECAY_DATE":null,"OBJECT_TYPE":"PAYLOAD","MEAN_MOTION_DDOT":"0.0000000000000","RA_OF_ASC_NODE":"340.9155","LAUNCH_DATE":"2021-04-07","TLE_LINE1":"1 48094U 21027C   22048.50609313  .00000974  00000-0  84279-4 0  9994","MEAN_MOTION":"15.06395550","APOAPSIS":"548.299","INCLINATION":"53.0565","GP_ID":"196207543","MEAN_MOTION_DOT":"0.00000974","ARG_OF_PERICENTER":"69.5604","OBJECT_ID":"2021-027C","BSTAR":"0.00008427900000","SEMIMAJOR_AXIS":"6925.362","MEAN_ELEMENT_THEORY":"SGP4","SITE":"AFETR","PERIOD":"95.592","RCS_SIZE":"LARGE","EPHEMERIS_TYPE":"0","CLASSIFICATION_TYPE":"U","MEAN_ANOMALY":"290.5551","NORAD_CAT_ID":"48094","EPOCH":"2022-02-17T12:08:46.446432","PERIAPSIS":"546.156","OBJECT_NAME":"STARLINK-2412"},{"GP_ID":"196213514","INCLINATION":"53.0541","APOAPSIS":"548.377","LAUNCH_DATE":"2021-04-07","MEAN_MOTION":"15.06406402","TLE_LINE1":"1 48095U 21027D   22048.51346701  .00009965  00000-0  68681-3 0  9992","BSTAR":"0.00068681000000","OBJECT_ID":"2021-027D","ARG_OF_PERICENTER":"73.1992","MEAN_MOTION_DOT":"0.00009965","PERIOD":"95.592","EPHEMERIS_TYPE":"0","RCS_SIZE":"LARGE","SITE":"AFETR","SEMIMAJOR_AXIS":"6925.329","MEAN_ELEMENT_THEORY":"SGP4","OBJECT_NAME":"STARLINK-2414","EPOCH":"2022-02-17T12:19:23.549664","PERIAPSIS":"546.011","NORAD_CAT_ID":"48095","CLASSIFICATION_TYPE":"U","MEAN_ANOMALY":"286.9184","ELEMENT_SET_NO":"999","FILE":"3304975","TIME_SYSTEM":"UTC","REF_FRAME":"TEME","ECCENTRICITY":"0.00017080","CENTER_NAME":"EARTH","COUNTRY_CODE":"US","OBJECT_TYPE":"PAYLOAD","TLE_LINE2":"2 48095  53.0541 340.8902 0001708  73.1992 286.9184 15.06406402 48771","DECAY_DATE":null,"REV_AT_EPOCH":"4877","RA_OF_ASC_NODE":"340.8902","MEAN_MOTION_DDOT":"0.0000000000000"},{"COUNTRY_CODE":"US","CENTER_NAME":"EARTH","ECCENTRICITY":"0.00015950","REF_FRAME":"TEME","TIME_SYSTEM":"UTC","ELEMENT_SET_NO":"999","FILE":"3305402","MEAN_MOTION_DDOT":"0.0000000000000","RA_OF_ASC_NODE":"339.2197","TLE_LINE2":"2 48096  53.0548 339.2197 0001595  62.6885 297.4266 15.06391197 49228","REV_AT_EPOCH":"4922","DECAY_DATE":null,"OBJECT_TYPE":"PAYLOAD","MEAN_MOTION_DOT":"0.00001590","BSTAR":"0.00012566000000","OBJECT_ID":"2021-027E","ARG_OF_PERICENTER":"62.6885","MEAN_MOTION":"15.06391197","TLE_LINE1":"1 48096U 21027E   22048.88574637  .00001590  00000-0  12566-3 0  9991","LAUNCH_DATE":"2021-04-07","APOAPSIS":"548.345","INCLINATION":"53.0548","GP_ID":"196244177","MEAN_ANOMALY":"297.4266","CLASSIFICATION_TYPE":"U","NORAD_CAT_ID":"48096","PERIAPSIS":"546.136","EPOCH":"2022-02-17T21:15:28.486368","OBJECT_NAME":"STARLINK-2417","SEMIMAJOR_AXIS":"6925.376","MEAN_ELEMENT_THEORY":"SGP4","SITE":"AFETR","EPHEMERIS_TYPE":"0","RCS_SIZE":"LARGE","PERIOD":"95.593"},{"GP_ID":"196243426","INCLINATION":"53.0569","APOAPSIS":"548.108","TLE_LINE1":"1 48097U 21027F   22048.93182763  .00002670  00000-0  19809-3 0  9990","MEAN_MOTION":"15.06394020","LAUNCH_DATE":"2021-04-07","OBJECT_ID":"2021-027F","ARG_OF_PERICENTER":"86.2806","BSTAR":"0.00019809000000","MEAN_MOTION_DOT":"0.00002670","RCS_SIZE":"LARGE","EPHEMERIS_TYPE":"0","PERIOD":"95.593","SITE":"AFETR","MEAN_ELEMENT_THEORY":"SGP4","SEMIMAJOR_AXIS":"6925.367","OBJECT_NAME":"STARLINK-2418","PERIAPSIS":"546.356","EPOCH":"2022-02-17T22:21:49.907232","NORAD_CAT_ID":"48097","MEAN_ANOMALY":"273.8327","CLASSIFICATION_TYPE":"U","FILE":"3305402","ELEMENT_SET_NO":"999","TIME_SYSTEM":"UTC","ECCENTRICITY":"0.00012650","REF_FRAME":"TEME","COUNTRY_CODE":"US","CENTER_NAME":"EARTH","OBJECT_TYPE":"PAYLOAD","REV_AT_EPOCH":"4951","TLE_LINE2":"2 48097  53.0569 319.0057 0001265  86.2806 273.8327 15.06394020 49518","DECAY_DATE":null,"RA_OF_ASC_NODE":"319.0057","MEAN_MOTION_DDOT":"0.0000000000000"},{"CENTER_NAME":"EARTH","COUNTRY_CODE":"US","REF_FRAME":"TEME","ECCENTRICITY":"0.00015900","TIME_SYSTEM":"UTC","ELEMENT_SET_NO":"999","FILE":"3304975","MEAN_MOTION_DDOT":"0.0000000000000","RA_OF_ASC_NODE":"330.9012","TLE_LINE2":"2 48098  53.0557 330.9012 0001590  69.1617 290.9542 15.06408916 48967","REV_AT_EPOCH":"4896","DECAY_DATE":null,"OBJECT_TYPE":"PAYLOAD","MEAN_MOTION_DOT":"0.00001252","BSTAR":"0.00010293000000","OBJECT_ID":"2021-027G","ARG_OF_PERICENTER":"69.1617","LAUNCH_DATE":"2021-04-07","TLE_LINE1":"1 48098U 21027G   22048.51069863  .00001252  00000-0  10293-3 0  9993","MEAN_MOTION":"15.06408916","APOAPSIS":"548.287","INCLINATION":"53.0557","GP_ID":"196213521","CLASSIFICATION_TYPE":"U","MEAN_ANOMALY":"290.9542","NORAD_CAT_ID":"48098","EPOCH":"2022-02-17T12:15:24.361632","PERIAPSIS":"546.085","OBJECT_NAME":"STARLINK-2421","SEMIMAJOR_AXIS":"6925.321","MEAN_ELEMENT_THEORY":"SGP4","SITE":"AFETR","PERIOD":"95.592","EPHEMERIS_TYPE":"0","RCS_SIZE":"LARGE"},{"GP_ID":"196206318","APOAPSIS":"548.286","INCLINATION":"53.0567","LAUNCH_DATE":"2021-04-07","TLE_LINE1":"1 48099U 21027H   22048.49872236  .00004114  00000-0  29492-3 0  9998","MEAN_MOTION":"15.06399749","OBJECT_ID":"2021-027H","BSTAR":"0.00029492000000","ARG_OF_PERICENTER":"66.9526","MEAN_MOTION_DOT":"0.00004114","PERIOD":"95.592","EPHEMERIS_TYPE":"0","RCS_SIZE":"LARGE","SITE":"AFETR","SEMIMAJOR_AXIS":"6925.349","MEAN_ELEMENT_THEORY":"SGP4","OBJECT_NAME":"STARLINK-2428","PERIAPSIS":"546.142","EPOCH":"2022-02-17T11:58:09.611904","NORAD_CAT_ID":"48099","CLASSIFICATION_TYPE":"U","MEAN_ANOMALY":"293.1626","ELEMENT_SET_NO":"999","FILE":"3304735","TIME_SYSTEM":"UTC","REF_FRAME":"TEME","ECCENTRICITY":"0.00015480","CENTER_NAME":"EARTH","COUNTRY_CODE":"US","OBJECT_TYPE":"PAYLOAD","REV_AT_EPOCH":"4916","TLE_LINE2":"2 48099  53.0567 340.9434 0001548  66.9526 293.1626 15.06399749 49169","DECAY_DATE":null,"RA_OF_ASC_NODE":"340.9434","MEAN_MOTION_DDOT":"0.0000000000000"},{"OBJECT_ID":"2021-027J","ARG_OF_PERICENTER":"68.8525","BSTAR":"0.00020211000000","MEAN_MOTION_DOT":"0.00002730","GP_ID":"196244678","APOAPSIS":"548.265","INCLINATION":"53.0552","LAUNCH_DATE":"2021-04-07","TLE_LINE1":"1 48100U 21027J   22048.92444628  .00002730  00000-0  20211-3 0  9991","MEAN_MOTION":"15.06399403","OBJECT_NAME":"STARLINK-2430","PERIAPSIS":"546.166","EPOCH":"2022-02-17T22:11:12.158592","NORAD_CAT_ID":"48100","CLASSIFICATION_TYPE":"U","MEAN_ANOMALY":"291.2626","PERIOD":"95.592","RCS_SIZE":"LARGE","EPHEMERIS_TYPE":"0","SITE":"AFETR","SEMIMAJOR_AXIS":"6925.350","MEAN_ELEMENT_THEORY":"SGP4","REF_FRAME":"TEME","ECCENTRICITY":"0.00015150","CENTER_NAME":"EARTH","COUNTRY_CODE":"US","FILE":"3305402","ELEMENT_SET_NO":"999","TIME_SYSTEM":"UTC","RA_OF_ASC_NODE":"319.0384","MEAN_MOTION_DDOT":"0.0000000000000","OBJECT_TYPE":"PAYLOAD","TLE_LINE2":"2 48100  53.0552 319.0384 0001515  68.8525 291.2626 15.06399403 49516","REV_AT_EPOCH":"4951","DECAY_DATE":null}];
